OBJECT_NAME,OBJECT_ID,EPOCH,MEAN_MOTION,ECCENTRICITY,INCLINATION,RA_OF_ASC_NODE,ARG_OF_PERICENTER,MEAN_ANOMALY,EPHEMERIS_TYPE,CLASSIFICATION_TYPE,NORAD_CAT_ID,ELEMENT_SET_NO,REV_AT_EPOCH,BSTAR,MEAN_MOTION_DOT,MEAN_MOTION_DDOT
SAUDISAT 1C (SO-50),2002-058C,2026-06-10T09:53:19.735008,14.83031935,.00754,64.5505,149.9474,263.7335,95.5179,0,U,27607,999,26345,.12206E-3,.888E-5,0
SAUDISAT 2,2004-025F,2026-06-10T12:05:00.583008,14.56679989,.0023873,98.5506,161.3127,319.6344,40.3081,0,U,28371,999,16477,.64243E-4,.238E-5,0
SAUDISAT 3,2007-012B,2026-06-10T02:50:34.050624,14.71421550,.00133358,98.1453,111.5145,248.2816,111.6972,0,U,31118,999,2670,.4570318E-4,.232E-5,0
PISAT,2016-059B,2026-06-10T11:14:51.938880,14.68972038,.0027896,97.8178,162.2102,224.9025,134.9925,0,U,41784,999,51875,.14282E-3,.794E-5,0
FLYING LAPTOP,2017-042G,2026-06-10T12:28:18.791616,15.01102920,.0019264,97.4659,317.3109,143.5210,216.7331,0,U,42831,999,48545,.27892E-3,.3526E-4,0
SALSAT,2020-068K,2026-06-10T06:39:18.129024,15.29700288,.0008649,97.8853,163.9217,336.5873,23.4971,0,U,46495,999,31430,.26695E-3,.7605E-4,0
