SAUDISAT 1C (SO-50)     
1 27607U 02058C   26161.41203397  .00000888  00000+0  12206-3 0  9999
2 27607  64.5505 149.9474 0075400 263.7335  95.5179 14.83031935263455
SAUDISAT 2              
1 28371U 04025F   26161.50347897  .00000238  00000+0  64243-4 0  9996
2 28371  98.5506 161.3127 0023873 319.6344  40.3081 14.56679989164775
SAUDISAT 3              
1 31118U 07012B   26161.11844966  .00000232  00000+0  45703-4 0  9998
2 31118  98.1453 111.5145 0013335 248.2816 111.6972 14.71421550 26702
PISAT                   
1 41784U 16059B   26161.46865670  .00000794  00000+0  14282-3 0  9992
2 41784  97.8178 162.2102 0027896 224.9025 134.9925 14.68972038518753
FLYING LAPTOP           
1 42831U 17042G   26161.51966194  .00003526  00000+0  27892-3 0  9995
2 42831  97.4659 317.3109 0019264 143.5210 216.7331 15.01102920485452
SALSAT                  
1 46495U 20068K   26161.27729316  .00007605  00000+0  26695-3 0  9995
2 46495  97.8853 163.9217 0008649 336.5873  23.4971 15.29700288314300
